{
    "links": {
        "self": "http://www.neowsapp.com/rest/v1/neo/3299814?api_key=iIulBulltgU6a56xZRHN4H3l9WmuAYTsLGpBGhQ2"
    },
    "id": "3299814",
    "neo_reference_id": "3299814",
    "name": "(2005 VD7)",
    "designation": "2005 VD7",
    "nasa_jpl_url": "http://ssd.jpl.nasa.gov/sbdb.cgi?sstr=3299814",
    "absolute_magnitude_h": 22.4,
    "estimated_diameter": {
        "kilometers": {
            "estimated_diameter_min": 0.0880146521,
            "estimated_diameter_max": 0.1968067451
        },
        "meters": {
            "estimated_diameter_min": 88.0146520901,
            "estimated_diameter_max": 196.8067450894
        },
        "miles": {
            "estimated_diameter_min": 0.0546897524,
            "estimated_diameter_max": 0.122290004
        },
        "feet": {
            "estimated_diameter_min": 288.7619911632,
            "estimated_diameter_max": 645.6914415591
        }
    },
    "is_potentially_hazardous_asteroid": false,
    "close_approach_data": [
        {
            "close_approach_date": "2005-10-22",
            "close_approach_date_full": "2005-Oct-22 15:43",
            "epoch_date_close_approach": 1129995780000,
            "relative_velocity": {
                "kilometers_per_second": "7.8633289473",
                "kilometers_per_hour": "28307.9842103323",
                "miles_per_hour": "17589.4805222478"
            },
            "miss_distance": {
                "astronomical": "0.0233924501",
                "lunar": "9.0996630889",
                "kilometers": "3499460.709041287",
                "miles": "2174464.0533602806"
            },
            "orbiting_body": "Earth"
        },
        {
            "close_approach_date": "2012-11-30",
            "close_approach_date_full": "2012-Nov-30 02:11",
            "epoch_date_close_approach": 1354241460000,
            "relative_velocity": {
                "kilometers_per_second": "17.0948691975",
                "kilometers_per_hour": "61541.529110861",
                "miles_per_hour": "38239.5129078014"
            },
            "miss_distance": {
                "astronomical": "0.3236121749",
                "lunar": "125.8851360361",
                "kilometers": "48411692.071107463",
                "miles": "30081630.5492424694"
            },
            "orbiting_body": "Earth"
        }
    ],
    "orbital_data": {
        "orbit_id": "10",
        "orbit_determination_date": "2017-04-06 09:09:53",
        "first_observation_date": "2005-11-12",
        "last_observation_date": "2005-12-07",
        "data_arc_in_days": 25,
        "observations_used": 32,
        "orbit_uncertainty": "7",
        "minimum_orbit_intersection": ".0306828",
        "jupiter_tisserand_invariant": "3.346",
        "epoch_osculation": "2459000.5",
        "eccentricity": ".5580402913965916",
        "semi_major_axis": "2.321342565367397",
        "inclination": "5.166818362275831",
        "ascending_node_longitude": "27.82662376349948",
        "orbital_period": "1291.835691436576",
        "perihelion_distance": "1.025939883758463",
        "perihelion_argument": "355.1858488063671",
        "aphelion_distance": "3.616745246976331",
        "perihelion_time": "2458818.357941970607",
        "mean_anomaly": "50.75811213859831",
        "mean_motion": ".2786732108319943",
        "equinox": "J2000",
        "orbit_class": {
            "orbit_class_type": "AMO",
            "orbit_class_description": "Near-Earth asteroid orbits similar to that of 1221 Amor",
            "orbit_class_range": "1.017 AU < q (perihelion) < 1.3 AU"
        }
    },
    "is_sentry_object": false
}